NORAD_CAT_ID,OBJECT_NAME,OBJECT_TYPE,EPOCH,MEAN_MOTION,ECCENTRICITY,INCLINATION,RA_OF_ASC_NODE,ARG_OF_PERICENTER,MEAN_ANOMALY,BSTAR,MEAN_MOTION_DOT,MEAN_MOTION_DDOT,TLE_LINE0,TLE_LINE1,TLE_LINE2,SEMIMAJOR_AXIS,PERIOD,APOGEE,PERIGEE,DECAYED
54169.0,STARLINK-5282,PAYLOAD,2024-02-08 15:33:05,15.08850824,0.000129,53.2166,175.6294,83.2886,276.8253,1.8924e-05,1.3e-07,0.0,0 STARLINK-5282,1 54169U 22141N   24039.64798098  .00000013  00000-0  18924-4 0  9996,2 54169  53.2166 175.6294 0001290  83.2886 276.8253 15.08850824 71126,6917.847,95.437,540.605,538.82,0.0
54169.0,STARLINK-5282,PAYLOAD,2024-02-09 12:13:07,15.08840663,0.000138,53.2184,171.7662,80.0935,280.0213,-4.7887e-05,-1.05e-05,0.0,0 STARLINK-5282,1 54169U 22141N   24040.50911077 -.00001050  00000-0 -47887-4 0  9991,2 54169  53.2184 171.7662 0001380  80.0935 280.0213 15.08840663 71259,6917.878,95.438,540.698,538.789,0.0
54169.0,STARLINK-5282,PAYLOAD,2024-02-10 13:39:17,15.08838852,0.0001484,53.2167,167.0036,93.9336,266.1825,-6.3251e-06,-3.89e-06,0.0,0 STARLINK-5282,1 54169U 22141N   24041.56895220 -.00000389  00000-0 -63251-5 0  9997,2 54169  53.2167 167.0036 0001484  93.9336 266.1825 15.08838852 71415,6917.884,95.438,540.776,538.722,0.0
54169.0,STARLINK-5282,PAYLOAD,2024-02-10 18:25:26,15.08842741,0.000152,53.2165,166.1064,104.9115,255.2046,-1.1468e-05,-4.71e-06,0.0,0 STARLINK-5282,1 54169U 22141N   24041.76766905 -.00000471  00000-0 -11468-4 0  9990,2 54169  53.2165 166.1064 0001520 104.9115 255.2046 15.08842741 71442,6917.872,95.437,540.789,538.685,0.0
54169.0,STARLINK-5282,PAYLOAD,2024-02-11 13:30:03,15.08846247,0.0001683,53.2176,162.5452,107.2627,252.855,0.00015327,2.152e-05,0.0,0 STARLINK-5282,1 54169U 22141N   24042.56254432  .00002152  00000-0  15327-3 0  9999,2 54169  53.2176 162.5452 0001683 107.2627 252.8550 15.08846247 71560,6917.861,95.437,540.891,538.562,0.0
54169.0,STARLINK-5282,PAYLOAD,2024-02-11 16:40:49,15.08850775,0.0001564,53.2177,161.9516,103.3912,256.7254,0.00018811,2.708e-05,0.0,0 STARLINK-5282,1 54169U 22141N   24042.69502011  .00002708  00000-0  18811-3 0  9990,2 54169  53.2177 161.9516 0001564 103.3912 256.7254 15.08850775 71584,6917.847,95.437,540.794,538.631,0.0
54169.0,STARLINK-5282,PAYLOAD,2024-02-12 11:45:28,15.08839293,0.0001355,53.217,158.3745,86.159,273.9557,5.6543e-05,6.12e-06,0.0,0 STARLINK-5282,1 54169U 22141N   24043.48991144  .00000612  00000-0  56543-4 0  9994,2 54169  53.2170 158.3745 0001355  86.1590 273.9557 15.08839293 71702,6917.883,95.438,540.685,538.81,0.0
54169.0,STARLINK-5282,PAYLOAD,2024-02-12 13:20:51,15.08841257,0.0001535,53.2172,158.0783,98.3336,261.783,6.4758e-05,7.43e-06,0.0,0 STARLINK-5282,1 54169U 22141N   24043.55614989  .00000743  00000-0  64758-4 0  9993,2 54169  53.2172 158.0783 0001535  98.3336 261.7830 15.08841257 71719,6917.877,95.437,540.803,538.68,0.0
54169.0,STARLINK-5282,PAYLOAD,2024-02-12 16:31:36,15.08851697,0.0001523,53.2183,157.4878,100.5767,259.5397,9.5524e-05,1.233e-05,0.0,0 STARLINK-5282,1 54169U 22141N   24043.68862232  .00001233  00000-0  95524-4 0  9993,2 54169  53.2183 157.4878 0001523 100.5767 259.5397 15.08851697 71734,6917.845,95.437,540.763,538.656,0.0
54169.0,STARLINK-5282,PAYLOAD,2024-02-13 11:36:15,15.08841149,0.0001882,53.2181,153.9191,134.1796,225.9351,-7.6524e-05,-1.506e-05,0.0,0 STARLINK-5282,1 54169U 22141N   24044.48351293 -.00001506  00000-0 -76524-4 0  9996,2 54169  53.2181 153.9191 0001882 134.1796 225.9351 15.08841149 71855,6917.877,95.437,541.044,538.44,0.0
54169.0,STARLINK-5282,PAYLOAD,2024-02-13 14:47:02,15.08841457,0.0001535,53.2182,153.3264,69.8229,290.2928,-5.4122e-05,-1.149e-05,0.0,0 STARLINK-5282,1 54169U 22141N   24044.61599671 -.00001149  00000-0 -54122-4 0  9998,2 54169  53.2182 153.3264 0001535  69.8229 290.2928 15.08841457 71870,6917.876,95.437,540.803,538.679,0.0
54169.0,STARLINK-5282,PAYLOAD,2024-02-13 16:22:25,15.08842714,0.0001435,53.2182,153.0288,78.2818,281.8335,-3.861e-05,-9.02e-06,0.0,0 STARLINK-5282,1 54169U 22141N   24044.68223494 -.00000902  00000-0 -38610-4 0  9992,2 54169  53.2182 153.0288 0001435  78.2818 281.8335 15.08842714 71886,6917.872,95.437,540.73,538.744,0.0
54169.0,STARLINK-5282,PAYLOAD,2024-02-14 14:37:47,15.08861178,0.000116,53.2175,148.8642,95.3249,264.7876,0.00014898,2.085e-05,0.0,0 STARLINK-5282,1 54169U 22141N   24045.60957682  .00002085  00000-0  14898-3 0  9991,2 54169  53.2175 148.8642 0001160  95.3249 264.7876 15.08861178 72029,6917.816,95.436,540.483,538.878,0.0
54169.0,STARLINK-5282,PAYLOAD,2024-02-14 16:13:10,15.08863455,0.00011,53.2172,148.5662,95.028,265.0838,0.00014914,2.088e-05,0.0,0 STARLINK-5282,1 54169U 22141N   24045.67581425  .00002088  00000-0  14914-3 0  9998,2 54169  53.2172 148.5662 0001100  95.0280 265.0838 15.08863455 72034,6917.809,95.436,540.435,538.913,0.0
54169.0,STARLINK-5282,PAYLOAD,2024-02-15 06:31:40,15.08832531,0.0001168,53.2155,145.894,75.8423,284.2699,2.6071e-05,1.27e-06,0.0,0 STARLINK-5282,1 54169U 22141N   24046.27200173  .00000127  00000-0  26071-4 0  9993,2 54169  53.2155 145.8940 0001168  75.8423 284.2699 15.08832531 72122,6917.903,95.438,540.576,538.96,0.0
54169.0,STARLINK-5282,PAYLOAD,2024-02-15 12:53:13,15.08835366,0.0001424,53.2167,144.7011,91.847,268.2686,3.2045e-05,2.22e-06,0.0,0 STARLINK-5282,1 54169U 22141N   24046.53696066  .00000222  00000-0  32045-4 0  9996,2 54169  53.2167 144.7011 0001424  91.8470 268.2686 15.08835366 72168,6917.895,95.438,540.745,538.774,0.0
54169.0,STARLINK-5282,PAYLOAD,2024-02-16 00:00:55,15.08840386,0.0001247,53.2157,142.622,85.1739,274.9396,9.7669e-05,1.267e-05,0.0,0 STARLINK-5282,1 54169U 22141N   24047.00063672  .00001267  00000-0  97669-4 0  9993,2 54169  53.2157 142.6220 0001247  85.1739 274.9396 15.08840386 72231,6917.879,95.438,540.607,538.882,0.0
54169.0,STARLINK-5282,PAYLOAD,2024-02-16 12:43:59,15.08846226,0.0001384,53.2158,140.2413,96.026,264.0889,0.00022562,3.305e-05,0.0,0 STARLINK-5282,1 54169U 22141N   24047.53055495  .00003305  00000-0  22562-3 0  9999,2 54169  53.2158 140.2413 0001384  96.0260 264.0889 15.08846226 72317,6917.861,95.437,540.684,538.769,0.0
54169.0,STARLINK-5282,PAYLOAD,2024-02-16 15:54:45,15.0885442,0.0001531,53.2158,139.6458,95.8226,264.2941,0.00014923,2.089e-05,0.0,0 STARLINK-5282,1 54169U 22141N   24047.66302991  .00002089  00000-0  14923-3 0  9999,2 54169  53.2158 139.6458 0001531  95.8226 264.2941 15.08854420 72339,6917.836,95.437,540.76,538.642,0.0
54169.0,STARLINK-5282,PAYLOAD,2024-02-17 12:34:47,15.08834828,0.000151,53.2163,135.7808,83.2683,276.8481,9.843e-05,1.279e-05,0.0,0 STARLINK-5282,1 54169U 22141N   24048.52416560  .00001279  00000-0  98430-4 0  9999,2 54169  53.2163 135.7808 0001510  83.2683 276.8481 15.08834828 72468,6917.896,95.438,540.806,538.717,0.0
54169.0,STARLINK-5282,PAYLOAD,2024-02-18 12:25:34,15.08859145,0.0001587,53.2169,131.3232,76.6512,283.4657,0.00064688,0.00010027,0.0,0 STARLINK-5282,1 54169U 22141N   24049.51775963  .00010027  00000-0  64688-3 0  9992,2 54169  53.2169 131.3232 0001587  76.6512 283.4657 15.08859145 72613,6917.822,95.436,540.785,538.589,0.0
54169.0,STARLINK-5282,PAYLOAD,2024-02-19 12:16:21,15.08845376,0.0001482,53.2158,126.8614,72.1219,287.9934,0.00017706,2.531e-05,0.0,0 STARLINK-5282,1 54169U 22141N   24050.51136237  .00002531  00000-0  17706-3 0  9999,2 54169  53.2158 126.8614 0001482  72.1219 287.9934 15.08845376 72767,6917.864,95.437,540.754,538.704,0.0
54169.0,STARLINK-5282,PAYLOAD,2024-02-19 21:48:40,15.08838136,0.0001529,53.216,125.0798,91.9622,268.1545,-1.6328e-05,-5.48e-06,0.0,0 STARLINK-5282,1 54169U 22141N   24050.90880374 -.00000548  00000-0 -16328-4 0  9998,2 54169  53.2160 125.0798 0001529  91.9622 268.1545 15.08838136 72825,6917.886,95.438,540.809,538.693,0.0
54169.0,STARLINK-5282,PAYLOAD,2024-02-20 12:07:09,15.08838296,0.0001629,53.2165,122.4043,93.0321,267.0858,-6.8296e-06,-3.97e-06,0.0,0 STARLINK-5282,1 54169U 22141N   24051.50496610 -.00000397  00000-0 -68296-5 0  9995,2 54169  53.2165 122.4043 0001629  93.0321 267.0858 15.08838296 72916,6917.886,95.438,540.878,538.624,0.0
54169.0,STARLINK-5282,PAYLOAD,2024-02-21 11:57:55,15.08846814,0.0001614,53.2165,117.9415,93.3969,266.7208,0.00019606,2.834e-05,0.0,0 STARLINK-5282,1 54169U 22141N   24052.49856414  .00002834  00000-0  19606-3 0  9991,2 54169  53.2165 117.9415 0001614  93.3969 266.7208 15.08846814 73060,6917.86,95.437,540.841,538.608,0.0
54169.0,STARLINK-5282,PAYLOAD,2024-02-21 13:33:19,15.0884455,0.0001842,53.2176,117.6434,98.4567,261.6634,0.00031959,4.802e-05,0.0,0 STARLINK-5282,1 54169U 22141N   24052.56480567  .00004802  00000-0  31959-3 0  9993,2 54169  53.2176 117.6434 0001842  98.4567 261.6634 15.08844550 73076,6917.866,95.437,541.006,538.457,0.0
54169.0,STARLINK-5282,PAYLOAD,2024-02-21 21:30:14,15.08841308,0.0001503,53.2164,116.1536,97.6354,262.4809,8.5292e-05,1.07e-05,0.0,0 STARLINK-5282,1 54169U 22141N   24052.89600569  .00001070  00000-0  85292-4 0  9999,2 54169  53.2164 116.1536 0001503  97.6354 262.4809 15.08841308 73126,6917.876,95.437,540.781,538.702,0.0
54169.0,STARLINK-5282,PAYLOAD,2024-02-22 10:13:20,15.08839716,0.0001562,53.2167,113.7738,98.3505,261.7665,0.00012636,1.724e-05,0.0,0 STARLINK-5282,1 54169U 22141N   24053.42592996  .00001724  00000-0  12636-3 0  9990,2 54169  53.2167 113.7738 0001562  98.3505 261.7665 15.08839716 73208,6917.881,95.438,540.827,538.666,0.0
54169.0,STARLINK-5282,PAYLOAD,2024-02-22 21:21:01,15.08841587,0.0001448,53.2154,111.693,103.7441,256.3712,9.1463e-05,1.168e-05,0.0,0 STARLINK-5282,1 54169U 22141N   24053.88960647  .00001168  00000-0  91463-4 0  9990,2 54169  53.2154 111.6930 0001448 103.7441 256.3712 15.08841587 73277,6917.876,95.437,540.742,538.739,0.0
54169.0,STARLINK-5282,PAYLOAD,2024-02-23 10:04:07,15.0884334,0.000144,53.2154,109.3163,94.725,265.3907,3.2559e-05,2.3e-06,0.0,0 STARLINK-5282,1 54169U 22141N   24054.41952624  .00000230  00000-0  32559-4 0  9996,2 54169  53.2154 109.3163 0001440  94.7250 265.3907 15.08843340 73352,6917.87,95.437,540.731,538.739,0.0
